{"type": "FeatureCollection", "features": [ {"type": "Feature", "properties": {"norad_id": 67230, "name": "ELECTRON R/B", "group": "last-30-days", "lat": 4.76589561679136, "lon": 88.73510663665286, "alt_km": 287.8294290868953, "timestamp": "2025-12-27T23:26:36.077227+00:00", "meta": {"OBJECT_NAME": "ELECTRON R/B", "OBJECT_ID": "2025-307C", "EPOCH": "2025-12-21T08:41:59.140320", "MEAN_MOTION": 15.55087105, "ECCENTRICITY": 0.02614087, "INCLINATION": 41.982, "RA_OF_ASC_NODE": 123.1026, "ARG_OF_PERICENTER": 268.141, "MEAN_ANOMALY": 88.9482, "EPHEMERIS_TYPE": 0, "CLASSIFICATION_TYPE": "U", "NORAD_CAT_ID": 67230, "ELEMENT_SET_NO": 999, "REV_AT_EPOCH": 1, "BSTAR": 0.00020247584, "MEAN_MOTION_DOT": 0.00071881, "MEAN_MOTION_DDOT": 8.106877e-06}, "tle": {"line1": "1 67230U 25307C   25355.36249005  .00071881  81069-5  20248-3 0  9997", "line2": "2 67230  41.9820 123.1026 0261408 268.1410  88.9482 15.55087105    19"}}, "geometry": {"type": "Point", "coordinates": [88.73510663665286, 4.76589561679136]}}, {"type": "Feature", "properties": {"norad_id": 67231, "name": "CZ-12A R/B", "group": "last-30-days", "lat": -59.59858366725249, "lon": 9.659339389796427, "alt_km": 187.9422347350528, "timestamp": "2025-12-27T23:26:36.077237+00:00", "meta": {"OBJECT_NAME": "CZ-12A R/B", "OBJECT_ID": "2025-308A", "EPOCH": "2025-12-27T16:22:43.102848", "MEAN_MOTION": 16.34688235, "ECCENTRICITY": 0.001336, "INCLINATION": 69.7019, "RA_OF_ASC_NODE": 49.698, "ARG_OF_PERICENTER": 146.26, "MEAN_ANOMALY": 213.9479, "EPHEMERIS_TYPE": 0, "CLASSIFICATION_TYPE": "U", "NORAD_CAT_ID": 67231, "ELEMENT_SET_NO": 999, "REV_AT_EPOCH": 75, "BSTAR": 0.00049172, "MEAN_MOTION_DOT": 0.03599257, "MEAN_MOTION_DDOT": 4.4922e-06}, "tle": {"line1": "1 67231U 25308A   25361.68244332  .03599257  44922-5  49172-3 0  9998", "line2": "2 67231  69.7019  49.6980 0013360 146.2600 213.9479 16.34688235   754"}}, "geometry": {"type": "Point", "coordinates": [9.659339389796427, -59.59858366725249]}}, {"type": "Feature", "properties": {"norad_id": 67232, "name": "BLUEBIRD 6", "group": "last-30-days", "lat": -27.41677971614389, "lon": -121.6918347849547, "alt_km": 519.7977776275902, "timestamp": "2025-12-27T23:26:36.077246+00:00", "meta": {"OBJECT_NAME": "BLUEBIRD 6", "OBJECT_ID": "2025-309A", "EPOCH": "2025-12-26T18:03:01.821888", "MEAN_MOTION": 15.17699903, "ECCENTRICITY": 0.00104773, "INCLINATION": 53.0002, "RA_OF_ASC_NODE": 40.8851, "ARG_OF_PERICENTER": 329.2446, "MEAN_ANOMALY": 30.7932, "EPHEMERIS_TYPE": 0, "CLASSIFICATION_TYPE": "U", "NORAD_CAT_ID": 67232, "ELEMENT_SET_NO": 999, "REV_AT_EPOCH": 40, "BSTAR": 7.265072e-05, "MEAN_MOTION_DOT": 1.165e-05, "MEAN_MOTION_DDOT": 0}, "tle": {"line1": "1 67232U 25309A   25360.75210442  .00001165  00000+0  72651-4 0  9997", "line2": "2 67232  53.0002  40.8851 0010477 329.2446  30.7932 15.17699903   405"}}, "geometry": {"type": "Point", "coordinates": [-121.6918347849547, -27.41677971614389]}}, {"type": "Feature", "properties": {"norad_id": 67233, "name": "LVM3 R/B", "group": "last-30-days", "lat": -42.55336401306296, "lon": -100.93521251312083, "alt_km": 516.0653327441514, "timestamp": "2025-12-27T23:26:36.077256+00:00", "meta": {"OBJECT_NAME": "LVM3 R/B", "OBJECT_ID": "2025-309B", "EPOCH": "2025-12-26T17:58:57.873216", "MEAN_MOTION": 15.19340101, "ECCENTRICITY": 0.0010474, "INCLINATION": 52.935, "RA_OF_ASC_NODE": 40.7629, "ARG_OF_PERICENTER": 355.6984, "MEAN_ANOMALY": 4.3917, "EPHEMERIS_TYPE": 0, "CLASSIFICATION_TYPE": "U", "NORAD_CAT_ID": 67233, "ELEMENT_SET_NO": 999, "REV_AT_EPOCH": 40, "BSTAR": 7.2626686e-05, "MEAN_MOTION_DOT": 1.231e-05, "MEAN_MOTION_DDOT": 0}, "tle": {"line1": "1 67233U 25309B   25360.74928094  .00001231  00000+0  72627-4 0  9993", "line2": "2 67233  52.9350  40.7629 0010474 355.6984   4.3917 15.19340101   404"}}, "geometry": {"type": "Point", "coordinates": [-100.93521251312083, -42.55336401306296]}}, {"type": "Feature", "properties": {"norad_id": 67234, "name": "2025-310A", "group": "last-30-days", "lat": 3.373990083470924, "lon": 6.239136784117153, "alt_km": 340.21395493703494, "timestamp": "2025-12-27T23:26:36.077266+00:00", "meta": {"OBJECT_NAME": "2025-310A", "OBJECT_ID": "2025-310A", "EPOCH": "2025-12-25T23:19:04.304640", "MEAN_MOTION": 15.47189508, "ECCENTRICITY": 0.03058256, "INCLINATION": 97.9672, "RA_OF_ASC_NODE": 4.5015, "ARG_OF_PERICENTER": 77.7397, "MEAN_ANOMALY": 285.7915, "EPHEMERIS_TYPE": 0, "CLASSIFICATION_TYPE": "U", "NORAD_CAT_ID": 67234, "ELEMENT_SET_NO": 999, "REV_AT_EPOCH": 6, "BSTAR": 0.00027304502, "MEAN_MOTION_DOT": 0.00103655, "MEAN_MOTION_DDOT": 2.159366e-06}, "tle": {"line1": "1 67234U 25310A   25359.97157760  .00103655  21594-5  27305-3 0  9995", "line2": "2 67234  97.9672   4.5015 0305825  77.7397 285.7915 15.47189508    63"}}, "geometry": {"type": "Point", "coordinates": [6.239136784117153, 3.373990083470924]}}, {"type": "Feature", "properties": {"norad_id": 67235, "name": "2025-310B", "group": "last-30-days", "lat": 10.74130428143376, "lon": 5.209572103548974, "alt_km": 309.10582739761776, "timestamp": "2025-12-27T23:26:36.077276+00:00", "meta": {"OBJECT_NAME": "2025-310B", "OBJECT_ID": "2025-310B", "EPOCH": "2025-12-26T17:55:41.350368", "MEAN_MOTION": 15.48206704, "ECCENTRICITY": 0.03027102, "INCLINATION": 97.9613, "RA_OF_ASC_NODE": 5.3742, "ARG_OF_PERICENTER": 73.1908, "MEAN_ANOMALY": 290.2311, "EPHEMERIS_TYPE": 0, "CLASSIFICATION_TYPE": "U", "NORAD_CAT_ID": 67235, "ELEMENT_SET_NO": 999, "REV_AT_EPOCH": 18, "BSTAR": 0.00024688639, "MEAN_MOTION_DOT": 0.00096045, "MEAN_MOTION_DDOT": 2.167529e-06}, "tle": {"line1": "1 67235U 25310B   25360.74700637  .00096045  21675-5  24689-3 0  9996", "line2": "2 67235  97.9613   5.3742 0302710  73.1908 290.2311 15.48206704   186"}}, "geometry": {"type": "Point", "coordinates": [5.209572103548974, 10.74130428143376]}}, {"type": "Feature", "properties": {"norad_id": 67246, "name": "FENGYUN 4C", "group": "last-30-days", "lat": 26.876529081532496, "lon": 43.137719431936944, "alt_km": 8504.419233187564, "timestamp": "2025-12-27T23:26:36.077290+00:00", "meta": {"OBJECT_NAME": "FENGYUN 4C", "OBJECT_ID": "2025-312A", "EPOCH": "2025-12-26T21:48:20.798784", "MEAN_MOTION": 2.27841578, "ECCENTRICITY": 0.7309751, "INCLINATION": 28.4641, "RA_OF_ASC_NODE": 334.3215, "ARG_OF_PERICENTER": 179.7824, "MEAN_ANOMALY": 181.1675, "EPHEMERIS_TYPE": 0, "CLASSIFICATION_TYPE": "U", "NORAD_CAT_ID": 67246, "ELEMENT_SET_NO": 999, "REV_AT_EPOCH": 1, "BSTAR": 0.0021251, "MEAN_MOTION_DOT": 0.00039214, "MEAN_MOTION_DDOT": 4.1525e-07}, "tle": {"line1": "1 67246U 25312A   25360.90857406  .00039214  41525-6  21251-2 0  9998", "line2": "2 67246  28.4641 334.3215 7309751 179.7824 181.1675  2.27841578    17"}}, "geometry": {"type": "Point", "coordinates": [43.137719431936944, 26.876529081532496]}}, {"type": "Feature", "properties": {"norad_id": 67247, "name": "CZ-3B R/B", "group": "last-30-days", "lat": -25.888467675073493, "lon": -89.54381429498864, "alt_km": 9625.927034329812, "timestamp": "2025-12-27T23:26:36.077302+00:00", "meta": {"OBJECT_NAME": "CZ-3B R/B", "OBJECT_ID": "2025-312B", "EPOCH": "2025-12-26T21:07:12.000000", "MEAN_MOTION": 2.38355124, "ECCENTRICITY": 0.7244185, "INCLINATION": 28.477, "RA_OF_ASC_NODE": 334.381, "ARG_OF_PERICENTER": 178.91, "MEAN_ANOMALY": 165.069, "EPHEMERIS_TYPE": 0, "CLASSIFICATION_TYPE": "U", "NORAD_CAT_ID": 67247, "ELEMENT_SET_NO": 999, "REV_AT_EPOCH": 0, "BSTAR": 0, "MEAN_MOTION_DOT": -2.43e-06, "MEAN_MOTION_DDOT": 4.04557e-07}, "tle": {"line1": "1 67247U 25312B   25360.88000000 -.00000243  40456-6  00000+0 0  9995", "line2": "2 67247  28.4770 334.3810 7244185 178.9100 165.0690  2.38355124    05"}}, "geometry": {"type": "Point", "coordinates": [-89.54381429498864, -25.888467675073493]}}]}